[{"OBJECT_NAME":"STARLINK-33982","OBJECT_ID":"2025-087L","EPOCH":"2026-03-09T16:59:34.061568","MEAN_MOTION":15.30201303,"ECCENTRICITY":9.925e-5,"INCLINATION":53.1571,"RA_OF_ASC_NODE":219.3837,"ARG_OF_PERICENTER":62.446,"MEAN_ANOMALY":297.6642,"EPHEMERIS_TYPE":0,"CLASSIFICATION_TYPE":"U","NORAD_CAT_ID":63707,"ELEMENT_SET_NO":999,"REV_AT_EPOCH":4920,"BSTAR":0.00090453347,"MEAN_MOTION_DOT":0.00026527,"MEAN_MOTION_DDOT":0},{"OBJECT_NAME":"COSMOS 1862","OBJECT_ID":"1987-055A","EPOCH":"2026-03-09T22:37:02.390592","MEAN_MOTION":15.30492139,"ECCENTRICITY":0.00097484,"INCLINATION":82.4856,"RA_OF_ASC_NODE":47.1862,"ARG_OF_PERICENTER":26.6325,"MEAN_ANOMALY":333.5414,"EPHEMERIS_TYPE":0,"CLASSIFICATION_TYPE":"U","NORAD_CAT_ID":18152,"ELEMENT_SET_NO":999,"REV_AT_EPOCH":8987,"BSTAR":0.00034125048,"MEAN_MOTION_DOT":0.00010107,"MEAN_MOTION_DDOT":0}]
